{"type": "FeatureCollection", "features": [ {"type": "Feature", "properties": {"norad_id": 33799, "name": "COSMOS 2251 DEB", "group": "cosmos-2251-debris", "lat": 6.000362910237889, "lon": 55.47377600588584, "alt_km": 637.6356503487541, "timestamp": "2025-12-26T23:26:42.516574+00:00", "meta": {"OBJECT_NAME": "COSMOS 2251 DEB", "OBJECT_ID": "1993-036AQ", "EPOCH": "2025-12-26T10:32:18.881088", "MEAN_MOTION": 14.79835372, "ECCENTRICITY": 0.0022079, "INCLINATION": 74.0323, "RA_OF_ASC_NODE": 54.8079, "ARG_OF_PERICENTER": 120.4033, "MEAN_ANOMALY": 262.4374, "EPHEMERIS_TYPE": 0, "CLASSIFICATION_TYPE": "U", "NORAD_CAT_ID": 33799, "ELEMENT_SET_NO": 999, "REV_AT_EPOCH": 89014, "BSTAR": 0.0013692, "MEAN_MOTION_DOT": 0.00010343, "MEAN_MOTION_DDOT": 0}, "tle": {"line1": "1 33799U 93036AQ  25360.43910742  .00010343  00000+0  13692-2 0  9991", "line2": "2 33799  74.0323  54.8079 0022079 120.4033 262.4374 14.79835372890147"}}, "geometry": {"type": "Point", "coordinates": [55.47377600588584, 6.000362910237889]}}, {"type": "Feature", "properties": {"norad_id": 33805, "name": "COSMOS 2251 DEB", "group": "cosmos-2251-debris", "lat": 69.62761585954252, "lon": 53.795091921351485, "alt_km": 650.7633906150513, "timestamp": "2025-12-26T23:26:42.516583+00:00", "meta": {"OBJECT_NAME": "COSMOS 2251 DEB", "OBJECT_ID": "1993-036AW", "EPOCH": "2025-12-26T18:02:14.693280", "MEAN_MOTION": 14.57886615, "ECCENTRICITY": 0.0059874, "INCLINATION": 74.0313, "RA_OF_ASC_NODE": 284.6755, "ARG_OF_PERICENTER": 109.5485, "MEAN_ANOMALY": 251.2159, "EPHEMERIS_TYPE": 0, "CLASSIFICATION_TYPE": "U", "NORAD_CAT_ID": 33805, "ELEMENT_SET_NO": 999, "REV_AT_EPOCH": 89431, "BSTAR": 0.00025663, "MEAN_MOTION_DOT": 1.175e-05, "MEAN_MOTION_DDOT": 0}, "tle": {"line1": "1 33805U 93036AW  25360.75155895  .00001175  00000+0  25663-3 0  9999", "line2": "2 33805  74.0313 284.6755 0059874 109.5485 251.2159 14.57886615894312"}}, "geometry": {"type": "Point", "coordinates": [53.795091921351485, 69.62761585954252]}}, {"type": "Feature", "properties": {"norad_id": 33811, "name": "COSMOS 2251 DEB", "group": "cosmos-2251-debris", "lat": -63.44938655552353, "lon": 128.5988617269276, "alt_km": 560.9114993745616, "timestamp": "2025-12-26T23:26:42.516597+00:00", "meta": {"OBJECT_NAME": "COSMOS 2251 DEB", "OBJECT_ID": "1993-036BC", "EPOCH": "2025-12-26T11:58:19.859808", "MEAN_MOTION": 15.05679452, "ECCENTRICITY": 0.0030993, "INCLINATION": 73.8378, "RA_OF_ASC_NODE": 274.1126, "ARG_OF_PERICENTER": 352.5157, "MEAN_ANOMALY": 186.3277, "EPHEMERIS_TYPE": 0, "CLASSIFICATION_TYPE": "U", "NORAD_CAT_ID": 33811, "ELEMENT_SET_NO": 999, "REV_AT_EPOCH": 90225, "BSTAR": 0.0010973, "MEAN_MOTION_DOT": 0.00016025, "MEAN_MOTION_DDOT": 0}, "tle": {"line1": "1 33811U 93036BC  25360.49884097  .00016025  00000+0  10973-2 0  9997", "line2": "2 33811  73.8378 274.1126 0030993 352.5157 186.3277 15.05679452902255"}}, "geometry": {"type": "Point", "coordinates": [128.5988617269276, -63.44938655552353]}}, {"type": "Feature", "properties": {"norad_id": 33815, "name": "COSMOS 2251 DEB", "group": "cosmos-2251-debris", "lat": -20.904760116159288, "lon": 140.2784675018358, "alt_km": 501.0019106529544, "timestamp": "2025-12-26T23:26:42.516611+00:00", "meta": {"OBJECT_NAME": "COSMOS 2251 DEB", "OBJECT_ID": "1993-036BG", "EPOCH": "2025-12-26T11:10:01.634016", "MEAN_MOTION": 15.2202672, "ECCENTRICITY": 0.0004559, "INCLINATION": 73.9514, "RA_OF_ASC_NODE": 147.6719, "ARG_OF_PERICENTER": 335.3561, "MEAN_ANOMALY": 80.8801, "EPHEMERIS_TYPE": 0, "CLASSIFICATION_TYPE": "U", "NORAD_CAT_ID": 33815, "ELEMENT_SET_NO": 999, "REV_AT_EPOCH": 88579, "BSTAR": 0.0077775, "MEAN_MOTION_DOT": 0.0018231, "MEAN_MOTION_DDOT": 0}, "tle": {"line1": "1 33815U 93036BG  25360.46529669  .00182310  00000+0  77775-2 0  9993", "line2": "2 33815  73.9514 147.6719 0004559 335.3561  80.8801 15.22026720885794"}}, "geometry": {"type": "Point", "coordinates": [140.2784675018358, -20.904760116159288]}}, {"type": "Feature", "properties": {"norad_id": 33816, "name": "COSMOS 2251 DEB", "group": "cosmos-2251-debris", "lat": -35.65911755287509, "lon": 69.30299758912847, "alt_km": 1081.2148996361984, "timestamp": "2025-12-26T23:26:42.516626+00:00", "meta": {"OBJECT_NAME": "COSMOS 2251 DEB", "OBJECT_ID": "1993-036BH", "EPOCH": "2025-12-26T13:12:12.420864", "MEAN_MOTION": 13.8179828, "ECCENTRICITY": 0.0264088, "INCLINATION": 73.8953, "RA_OF_ASC_NODE": 81.9893, "ARG_OF_PERICENTER": 92.1797, "MEAN_ANOMALY": 270.9588, "EPHEMERIS_TYPE": 0, "CLASSIFICATION_TYPE": "U", "NORAD_CAT_ID": 33816, "ELEMENT_SET_NO": 999, "REV_AT_EPOCH": 84864, "BSTAR": 0.00036141, "MEAN_MOTION_DOT": 4.83e-06, "MEAN_MOTION_DDOT": 0}, "tle": {"line1": "1 33816U 93036BH  25360.55014376  .00000483  00000+0  36141-3 0  9991", "line2": "2 33816  73.8953  81.9893 0264088  92.1797 270.9588 13.81798280848645"}}, "geometry": {"type": "Point", "coordinates": [69.30299758912847, -35.65911755287509]}}, {"type": "Feature", "properties": {"norad_id": 33818, "name": "COSMOS 2251 DEB", "group": "cosmos-2251-debris", "lat": -50.70057452614044, "lon": -22.797258036443008, "alt_km": 538.4580687666821, "timestamp": "2025-12-26T23:26:42.516636+00:00", "meta": {"OBJECT_NAME": "COSMOS 2251 DEB", "OBJECT_ID": "1993-036BK", "EPOCH": "2025-12-26T11:35:38.530176", "MEAN_MOTION": 15.13664063, "ECCENTRICITY": 0.0023628, "INCLINATION": 74.0796, "RA_OF_ASC_NODE": 137.8139, "ARG_OF_PERICENTER": 119.2587, "MEAN_ANOMALY": 304.342, "EPHEMERIS_TYPE": 0, "CLASSIFICATION_TYPE": "U", "NORAD_CAT_ID": 33818, "ELEMENT_SET_NO": 999, "REV_AT_EPOCH": 90070, "BSTAR": 0.002505, "MEAN_MOTION_DOT": 0.00045616, "MEAN_MOTION_DDOT": 0}, "tle": {"line1": "1 33818U 93036BK  25360.48308484  .00045616  00000+0  25050-2 0  9994", "line2": "2 33818  74.0796 137.8139 0023628 119.2587 304.3420 15.13664063900701"}}, "geometry": {"type": "Point", "coordinates": [-22.797258036443008, -50.70057452614044]}}, {"type": "Feature", "properties": {"norad_id": 33819, "name": "COSMOS 2251 DEB", "group": "cosmos-2251-debris", "lat": 0.34641635224123757, "lon": 3.994357799756034, "alt_km": 834.4592028525685, "timestamp": "2025-12-26T23:26:42.516646+00:00", "meta": {"OBJECT_NAME": "COSMOS 2251 DEB", "OBJECT_ID": "1993-036BL", "EPOCH": "2025-12-26T16:16:01.146720", "MEAN_MOTION": 14.32266299, "ECCENTRICITY": 0.0089582, "INCLINATION": 74.1772, "RA_OF_ASC_NODE": 184.6335, "ARG_OF_PERICENTER": 41.7568, "MEAN_ANOMALY": 35.5522, "EPHEMERIS_TYPE": 0, "CLASSIFICATION_TYPE": "U", "NORAD_CAT_ID": 33819, "ELEMENT_SET_NO": 999, "REV_AT_EPOCH": 87695, "BSTAR": 0.00053418, "MEAN_MOTION_DOT": 1.482e-05, "MEAN_MOTION_DDOT": 0}, "tle": {"line1": "1 33819U 93036BL  25360.67779105  .00001482  00000+0  53418-3 0  9991", "line2": "2 33819  74.1772 184.6335 0089582  41.7568  35.5522 14.32266299876958"}}, "geometry": {"type": "Point", "coordinates": [3.994357799756034, 0.34641635224123757]}}, {"type": "Feature", "properties": {"norad_id": 33821, "name": "COSMOS 2251 DEB", "group": "cosmos-2251-debris", "lat": -34.16814434884378, "lon": 101.5106665841735, "alt_km": 526.6101013988837, "timestamp": "2025-12-26T23:26:42.516656+00:00", "meta": {"OBJECT_NAME": "COSMOS 2251 DEB", "OBJECT_ID": "1993-036BN", "EPOCH": "2025-12-26T17:18:35.884224", "MEAN_MOTION": 15.26197186, "ECCENTRICITY": 0.0048956, "INCLINATION": 74.0304, "RA_OF_ASC_NODE": 113.2604, "ARG_OF_PERICENTER": 141.9043, "MEAN_ANOMALY": 218.5636, "EPHEMERIS_TYPE": 0, "CLASSIFICATION_TYPE": "U", "NORAD_CAT_ID": 33821, "ELEMENT_SET_NO": 999, "REV_AT_EPOCH": 75214, "BSTAR": 0.0013017, "MEAN_MOTION_DOT": 0.00034989, "MEAN_MOTION_DDOT": 0}, "tle": {"line1": "1 33821U 93036BN  25360.72124866  .00034989  00000+0  13017-2 0  9996", "line2": "2 33821  74.0304 113.2604 0048956 141.9043 218.5636 15.26197186752144"}}, "geometry": {"type": "Point", "coordinates": [101.5106665841735, -34.16814434884378]}}, {"type": "Feature", "properties": {"norad_id": 33822, "name": "COSMOS 2251 DEB", "group": "cosmos-2251-debris", "lat": 68.91152954623716, "lon": -59.240557337835355, "alt_km": 873.1855906361825, "timestamp": "2025-12-26T23:26:42.516666+00:00", "meta": {"OBJECT_NAME": "COSMOS 2251 DEB", "OBJECT_ID": "1993-036BP", "EPOCH": "2025-12-26T14:48:07.428096", "MEAN_MOTION": 14.13147705, "ECCENTRICITY": 0.0152549, "INCLINATION": 74.0689, "RA_OF_ASC_NODE": 169.1826, "ARG_OF_PERICENTER": 212.1875, "MEAN_ANOMALY": 222.0795, "EPHEMERIS_TYPE": 0, "CLASSIFICATION_TYPE": "U", "NORAD_CAT_ID": 33822, "ELEMENT_SET_NO": 999, "REV_AT_EPOCH": 86250, "BSTAR": 0.0018733, "MEAN_MOTION_DOT": 3.89e-05, "MEAN_MOTION_DDOT": 0}, "tle": {"line1": "1 33822U 93036BP  25360.61675264  .00003890  00000+0  18733-2 0  9995", "line2": "2 33822  74.0689 169.1826 0152549 212.1875 222.0795 14.13147705862500"}}, "geometry": {"type": "Point", "coordinates": [-59.240557337835355, 68.91152954623716]}}, {"type": "Feature", "properties": {"norad_id": 33823, "name": "COSMOS 2251 DEB", "group": "cosmos-2251-debris", "lat": -67.54785965107943, "lon": 79.70801296003773, "alt_km": 783.7217475166299, "timestamp": "2025-12-26T23:26:42.516675+00:00", "meta": {"OBJECT_NAME": "COSMOS 2251 DEB", "OBJECT_ID": "1993-036BQ", "EPOCH": "2025-12-26T10:21:01.378944", "MEAN_MOTION": 13.9898683, "ECCENTRICITY": 0.0209489, "INCLINATION": 73.8101, "RA_OF_ASC_NODE": 125.3346, "ARG_OF_PERICENTER": 248.3149, "MEAN_ANOMALY": 169.1404, "EPHEMERIS_TYPE": 0, "CLASSIFICATION_TYPE": "U", "NORAD_CAT_ID": 33823, "ELEMENT_SET_NO": 999, "REV_AT_EPOCH": 85801, "BSTAR": 0.00093914, "MEAN_MOTION_DOT": 1.611e-05, "MEAN_MOTION_DDOT": 0}, "tle": {"line1": "1 33823U 93036BQ  25360.43126596  .00001611  00000+0  93914-3 0  9999", "line2": "2 33823  73.8101 125.3346 0209489 248.3149 169.1404 13.98986830858010"}}, "geometry": {"type": "Point", "coordinates": [79.70801296003773, -67.54785965107943]}}]}